#aV2008  8 25  0  0   .00000000      96 DD+AD WGS84 FIT  NGA
## 1494  86400.00000000   900.00000000 54703  .0000000000000
+   31     2  3  4  5  6  7  8  9 10 11 12 13 14 15 16 17 18
+         19 20 21 22 23 24 25 26 27 28 29 30 31 32  0  0  0
+          0  0  0  0  0  0  0  0  0  0  0  0  0  0  0  0  0
+          0  0  0  0  0  0  0  0  0  0  0  0  0  0  0  0  0
+          0  0  0  0  0  0  0  0  0  0  0  0  0  0  0  0  0
++         0  0  0  0  0  0  0  0  0  0  0  0  0  0  0  0  0
++         0  0  0  0  0  0  0  0  0  0  0  0  0  0  0  0  0
++         0  0  0  0  0  0  0  0  0  0  0  0  0  0  0  0  0
++         0  0  0  0  0  0  0  0  0  0  0  0  0  0  0  0  0
++         0  0  0  0  0  0  0  0  0  0  0  0  0  0  0  0  0
%c cc cc ccc ccc cccc cccc cccc cccc ccccc ccccc ccccc ccccc
%c cc cc ccc ccc cccc cccc cccc cccc ccccc ccccc ccccc ccccc
%f  0.0000000  0.000000000  0.00000000000  0.000000000000000
%f  0.0000000  0.000000000  0.00000000000  0.000000000000000
%i    0    0    0    0      0      0      0      0         0
%i    0    0    0    0      0      0      0      0         0
/*      NGA, ST. LOUIS,MO.                                  
/*   EPHEMERIS COMPUTED FROM  3 DAYS OF DATA                
/* CCCCCCCCCCCCCCCCCCCCCCCCCCCCCCCCCCCCCCCCCCCCCCCCCCCCCCCCC
/* CCCCCCCCCCCCCCCCCCCCCCCCCCCCCCCCCCCCCCCCCCCCCCCCCCCCCCCCC
*  2008  8 25 22 45   .00000000                                                 
P  2 -13798.966445 -11277.796000 -19940.647033    192.229651                    
V  2   2675.742793 -24853.852813  11924.724622      -.027803                    
P  3  24456.511021  10253.909831   3261.401090    274.621877                    
V  3   2243.513803   5245.170824 -30380.839503       .051426                    
P  4  -7712.197814 -21695.464717 -13013.294733   -152.742262                    
V  4   4304.392088 -16249.417270  25099.027416      -.106735                    
P  5 -20962.292912  15814.332344  -3759.104028    345.310901                    
V  5  -5571.472805   -618.882685  30971.194191     -2.447357                    
P  6  22638.444859  13884.967417    169.755736    167.617062                    
V  6  -1943.679272   3120.028228 -31148.398132       .001154                    
P  7   7551.672972 -24035.699894  -8291.831902     12.007708                    
V  7   1822.259015  10673.845882 -29474.998178       .034570                    
P  8    416.949062 -25914.078490   4368.615926   -167.256242                    
V  8   3150.299516  -5354.123156 -31952.031050      -.015506                    
P  9 -13473.447385  11486.034203  19114.009791     11.731141                    
V  9   -394.660756 -25709.201408  14812.598596       .018737                    
P 10 -21683.929188  -2088.694408 -15553.810841     -4.153573                    
V 10  16949.803289  -9529.107627 -22228.909960      -.003765                    
P 11  13136.355709 -13823.107460  18203.907780     21.039043                    
V 11   5434.136646  23364.964186  14039.629251      -.006257                    
P 12 -24202.202163  10755.746967   1096.943728   -353.355873                    
V 12    -26.655989  -3069.273078  31868.618715       .012901                    
P 13   5374.211868 -13895.914913 -22105.491191    268.921918                    
V 13  22248.897452  16484.270401  -4974.195626       .013519                    
P 14  12478.755068  19646.280164  13009.737653   -227.748550                    
V 14 -13990.982292  -8398.839850  26206.752792       .046063                    
P 15 -22664.468499  -3721.939890  13375.562178   -166.186348                    
V 15 -12866.706527 -11261.810246 -24967.419449      -.064833                    
P 16  17594.145156   6283.636647 -18898.096741    110.357000                    
V 16 -21332.385539  11146.430088 -15897.132752      -.019272                    
P 17 -12596.339472 -19722.894074  12763.769840     38.908250                    
V 17  14420.630431   7432.290130  25635.969980      -.000726                    
P 18 -11064.665834  17747.073745  16350.629908   -141.000569                    
V 18 -19771.087752   6180.520504 -20703.194324       .041756                    
P 19  21980.559368   4326.808213  14504.747162     35.010611                    
V 19  13051.474330  12855.865965 -23540.870732       .002918                    
P 20  22967.081451 -13183.103907  -1926.507241    106.452911                    
V 20   3559.317982   1897.850040  31316.096271      -.010486                    
P 21  -4527.873841  25661.979053  -2733.610950     53.103752                    
V 21  -3763.092496  -4181.498420 -31317.666408      -.014215                    
P 22   2910.745399  15642.556681  21422.066143    211.195327                    
V 22 -24864.005267  10261.939514  -4209.925147      -.003260                    
P 23  15716.644907  -6283.040592 -20596.451364    370.534867                    
V 23  20958.863365  15255.555609  11112.675989       .015783                    
P 24 -12874.871737  17927.410025 -14807.239867    120.024560                    
V 24    253.098685 -19117.719162 -22841.917253       .030979                    
P 25   9451.293507 -20136.638745 -14290.476882   -250.390080                    
V 25   2394.896408  18632.705493 -23902.462511      -.341354                    
P 26 -22992.996675  -9650.479090   9384.934917    315.668862                    
V 26  -9143.768885  -8530.268041 -29103.134239       .059851                    
P 27   3808.813746 -25585.248965  -5052.507481    212.860918                    
V 27   2553.301157   7329.314573 -31178.497635       .028405                    
P 28  -1586.386200 -15755.106129  21668.955804    -22.060907                    
V 28  24558.765036 -10341.879368  -6156.834253      -.002098                    
P 29  -8716.635893  12425.591403 -21681.129941    -39.126594                    
V 29 -22650.630632 -16130.996875   -105.463186       .007555                    
P 30 -15531.526487  18045.213426 -12027.795239     93.164690                    
V 30 -14277.375253   4648.757447  26279.639509       .020257                    
P 31   9162.299266  19476.113386 -15290.447419    -25.054853                    
V 31  -3342.034742  19616.029171  22791.583025       .000827                    
P 32  25361.686375  -5837.667957   5224.458422    314.653195                    
V 32  -4779.418781   4626.644055  31110.825652       .012469                    
EOF
